[{"OBJECT_NAME":"GAOFEN-9 02","OBJECT_ID":"2020-034B","EPOCH":"2026-03-10T00:01:23.433024","MEAN_MOTION":15.24736529,"ECCENTRICITY":0.00138652,"INCLINATION":97.5615,"RA_OF_ASC_NODE":225.1997,"ARG_OF_PERICENTER":60.5372,"MEAN_ANOMALY":299.7247,"EPHEMERIS_TYPE":0,"CLASSIFICATION_TYPE":"U","NORAD_CAT_ID":45625,"ELEMENT_SET_NO":999,"REV_AT_EPOCH":32104,"BSTAR":0.00036092627,"MEAN_MOTION_DOT":8.888e-5,"MEAN_MOTION_DDOT":0},{"OBJECT_NAME":"STARLINK-30968","OBJECT_ID":"2023-191D","EPOCH":"2026-03-08T11:40:25.493088","MEAN_MOTION":15.27274459,"ECCENTRICITY":7.244e-5,"INCLINATION":42.9987,"RA_OF_ASC_NODE":110.54,"ARG_OF_PERICENTER":278.4439,"MEAN_ANOMALY":81.633,"EPHEMERIS_TYPE":0,"CLASSIFICATION_TYPE":"U","NORAD_CAT_ID":58511,"ELEMENT_SET_NO":999,"REV_AT_EPOCH":12528,"BSTAR":0.0021481981,"MEAN_MOTION_DOT":0.00058773,"MEAN_MOTION_DDOT":0}]
